[{"OBJECT_NAME":"OBJECT V","OBJECT_ID":"2023-085V","EPOCH":"2026-03-09T21:44:00.165408","MEAN_MOTION":15.30745852,"ECCENTRICITY":0.00069081,"INCLINATION":97.4843,"RA_OF_ASC_NODE":179.3833,"ARG_OF_PERICENTER":71.0503,"MEAN_ANOMALY":289.1485,"EPHEMERIS_TYPE":0,"CLASSIFICATION_TYPE":"U","NORAD_CAT_ID":57023,"ELEMENT_SET_NO":999,"REV_AT_EPOCH":15149,"BSTAR":0.00067780507,"MEAN_MOTION_DOT":0.00020109,"MEAN_MOTION_DDOT":0},{"OBJECT_NAME":"STARLINK-35168","OBJECT_ID":"2025-198T","EPOCH":"2026-03-09T20:18:33.770880","MEAN_MOTION":15.30205232,"ECCENTRICITY":8.304e-5,"INCLINATION":53.1576,"RA_OF_ASC_NODE":270.2991,"ARG_OF_PERICENTER":85.4379,"MEAN_ANOMALY":274.6717,"EPHEMERIS_TYPE":0,"CLASSIFICATION_TYPE":"U","NORAD_CAT_ID":65509,"ELEMENT_SET_NO":999,"REV_AT_EPOCH":2864,"BSTAR":0.001003799,"MEAN_MOTION_DOT":0.00029493,"MEAN_MOTION_DDOT":0}]
